$$SOE
2459580.500000000, A.D. 2022-Jan-01 00:00:00.0000, -2.215068629778979E+08, 2.244832121372015E+08, 2.631914780342352E+07,
2459587.500000000, A.D. 2022-Jan-08 00:00:00.0000, -2.311524046486260E+08, 2.162799392149565E+08, 2.695114564278975E+07,
2459594.500000000, A.D. 2022-Jan-15 00:00:00.0000, -2.404481295366039E+08, 2.077492648504170E+08, 2.754235029529764E+07,
2459601.500000000, A.D. 2022-Jan-22 00:00:00.0000, -2.493842388085574E+08, 1.989077949100828E+08, 2.809235620129785E+07,
2459608.500000000, A.D. 2022-Jan-29 00:00:00.0000, -2.579517820140301E+08, 1.897722830881280E+08, 2.860083834128576E+07,
2459615.500000000, A.D. 2022-Feb-05 00:00:00.0000, -2.661426432514913E+08, 1.803595843523379E+08, 2.906754963536103E+07,
2459622.500000000, A.D. 2022-Feb-12 00:00:00.0000, -2.739495229357542E+08, 1.706866101382219E+08, 2.949231793909495E+07,
2459629.500000000, A.D. 2022-Feb-19 00:00:00.0000, -2.813659167999508E+08, 1.607702876702655E+08, 2.987504297713273E+07,
2459636.500000000, A.D. 2022-Feb-26 00:00:00.0000, -2.883860937578350E+08, 1.506275226842028E+08, 3.021569330209638E+07,
2459643.500000000, A.D. 2022-Mar-05 00:00:00.0000, -2.950050727622712E+08, 1.402751649148749E+08, 3.051430323908780E+07,
2459650.500000000, A.D. 2022-Mar-12 00:00:00.0000, -3.012185987102900E+08, 1.297299762435552E+08, 3.077096981344653E+07,
2459657.500000000, A.D. 2022-Mar-19 00:00:00.0000, -3.070231175742453E+08, 1.190086014725357E+08, 3.098584967886884E+07,
2459664.500000000, A.D. 2022-Mar-26 00:00:00.0000, -3.124157509658492E+08, 1.081275416437981E+08, 3.115915606256679E+07,
2459671.500000000, A.D. 2022-Apr-02 00:00:00.0000, -3.173942702731678E+08, 9.710312975479160E+07, 3.129115573351952E+07,
2459678.500000000, A.D. 2022-Apr-09 00:00:00.0000, -3.219570702851710E+08, 8.595150877364084E+07, 3.138216598349150E+07,
2459685.500000000, A.D. 2022-Apr-16 00:00:00.0000, -3.261031421126027E+08, 7.468861249578033E+07, 3.143255165316702E+07,
2459692.500000000, A.D. 2022-Apr-23 00:00:00.0000, -3.298320468215954E+08, 6.333015020604764E+07, 3.144272241781976E+07,
2459699.500000000, A.D. 2022-Apr-30 00:00:00.0000, -3.331438917846849E+08, 5.189159277621195E+07, 3.141313032852492E+07,
2459706.500000000, A.D. 2022-May-07 00:00:00.0000, -3.360393068054958E+08, 4.038815810154155E+07, 3.134426717362255E+07,
2459713.500000000, A.D. 2022-May-14 00:00:00.0000, -3.385194187210824E+08, 2.883479879107978E+07, 3.123666178619665E+07,
2459720.500000000, A.D. 2022-May-21 00:00:00.0000, -3.405858265912197E+08, 1.724619274013816E+07, 3.109087754891428E+07,
2459727.500000000, A.D. 2022-May-28 00:00:00.0000, -3.422405780282654E+08, 5.636735498212568E+06, 3.090751006446830E+07,
2459734.500000000, A.D. 2022-Jun-04 00:00:00.0000, -3.434861464536536E+08, -5.979466000601472E+06, 3.068718494286555E+07,
2459741.500000000, A.D. 2022-Jun-11 00:00:00.0000, -3.443254091839450E+08, -1.758859845863016E+07, 3.043055569356579E+07,
2459748.500000000, A.D. 2022-Jun-18 00:00:00.0000, -3.447616263437547E+08, -2.917714608721080E+07, 3.013830172010220E+07,
2459755.500000000, A.D. 2022-Jun-25 00:00:00.0000, -3.447984206032462E+08, -4.073189347338041E+07, 2.981112641116595E+07,
2459762.500000000, A.D. 2022-Jul-02 00:00:00.0000, -3.444397576252841E+08, -5.223992761075774E+07, 2.944975530932782E+07,
2459769.500000000, A.D. 2022-Jul-09 00:00:00.0000, -3.436899268435363E+08, -6.368863901663140E+07, 2.905493433440996E+07,
2459776.500000000, A.D. 2022-Jul-16 00:00:00.0000, -3.425535226308780E+08, -7.506572094615088E+07, 2.862742815290547E+07,
2459783.500000000, A.D. 2022-Jul-23 00:00:00.0000, -3.410354280547214E+08, -8.635916671544480E+07, 2.816801889883306E+07,
2459790.500000000, A.D. 2022-Jul-30 00:00:00.0000, -3.391408011319106E+08, -9.755726857329968E+07, 2.767750496160800E+07,
2459797.500000000, A.D. 2022-Aug-06 00:00:00.0000, -3.368750599790721E+08, -1.086486175513100E+08, 2.715669956144181E+07,
2459804.500000000, A.D. 2022-Aug-13 00:00:00.0000, -3.342438676672216E+08, -1.196221016076503E+08, 2.660642941005380E+07,
2459811.500000000, A.D. 2022-Aug-20 00:00:00.0000, -3.312531183284623E+08, -1.304669026348385E+08, 2.602753355585120E+07,
2459818.500000000, A.D. 2022-Aug-27 00:00:00.0000, -3.279089244259655E+08, -1.411724931240647E+08, 2.542086234423390E+07,
2459825.500000000, A.D. 2022-Sep-03 00:00:00.0000, -3.242176049205754E+08, -1.517286326575214E+08, 2.478727645797345E+07,
2459832.500000000, A.D. 2022-Sep-10 00:00:00.0000, -3.201856742232152E+08, -1.621253642592168E+08, 2.412764602817226E+07,
2459839.500000000, A.D. 2022-Sep-17 00:00:00.0000, -3.158198318799748E+08, -1.723530106559013E+08, 2.344284980954564E+07,
2459846.500000000, A.D. 2022-Sep-24 00:00:00.0000, -3.111269529043286E+08, -1.824021705456647E+08, 2.273377440675584E+07,
2459853.500000000, A.D. 2022-Oct-01 00:00:00.0000, -3.061140784912311E+08, -1.922637149399883E+08, 2.200131352437678E+07,
2459860.500000000, A.D. 2022-Oct-08 00:00:00.0000, -3.007884066807080E+08, -2.019287830969458E+08, 2.124636724225243E+07,
2459867.500000000, A.D. 2022-Oct-15 00:00:00.0000, -2.951572838772822E+08, -2.113887768817288E+08, 2.046984149613416E+07,
2459874.500000000, A.D. 2022-Oct-22 00:00:00.0000, -2.892281993806114E+08, -2.206353552698769E+08, 1.967264782236899E+07,
2459881.500000000, A.D. 2022-Oct-29 00:00:00.0000, -2.830087804040658E+08, -2.296604316151892E+08, 1.885570292193629E+07,
2459888.500000000, A.D. 2022-Nov-05 00:00:00.0000, -2.765067854551501E+08, -2.384561709649195E+08, 1.801992807182086E+07,
2459895.500000000, A.D. 2022-Nov-12 00:00:00.0000, -2.697300980109115E+08, -2.470149861757114E+08, 1.716624866391201E+07,
2459902.500000000, A.D. 2022-Nov-19 00:00:00.0000, -2.626867211746252E+08, -2.553295338076793E+08, 1.629559385581009E+07,
2459909.500000000, A.D. 2022-Nov-26 00:00:00.0000, -2.553847730235844E+08, -2.633927102213170E+08, 1.540889627379237E+07,
2459916.500000000, A.D. 2022-Dec-03 00:00:00.0000, -2.478324824614855E+08, -2.711976479156943E+08, 1.450709174921763E+07,
2459923.500000000, A.D. 2022-Dec-10 00:00:00.0000, -2.400381855129448E+08, -2.787377121106099E+08, 1.359111908359298E+07,
2459930.500000000, A.D. 2022-Dec-17 00:00:00.0000, -2.320103220168233E+08, -2.860064976131899E+08, 1.266191983580974E+07,
2459937.500000000, A.D. 2022-Dec-24 00:00:00.0000, -2.237574325873838E+08, -2.929978260473973E+08, 1.172043811374228E+07,
2459944.500000000, A.D. 2022-Dec-31 00:00:00.0000, -2.152881554625939E+08, -2.997057433508987E+08, 1.076762034373650E+07,
2459951.500000000, A.D. 2023-Jan-07 00:00:00.0000, -2.066112230937868E+08, -3.061245165883621E+08, 9.804415082991779E+06,
2459958.500000000, A.D. 2023-Jan-14 00:00:00.0000, -1.977354604204670E+08, -3.122486295947521E+08, 8.831773093491212E+06,
2459965.500000000, A.D. 2023-Jan-21 00:00:00.0000, -1.886697854517414E+08, -3.180727806320914E+08, 7.850647474940822E+06,
2459972.500000000, A.D. 2023-Jan-28 00:00:00.0000, -1.794232084654559E+08, -3.235918822682073E+08, 6.861993502137795E+06,
2459979.500000000, A.D. 2023-Feb-04 00:00:00.0000, -1.700048300149654E+08, -3.288010604618146E+08, 5.866768431503937E+06,
2459986.500000000, A.D. 2023-Feb-11 00:00:00.0000, -1.604238395200042E+08, -3.336956530567285E+08, 4.865931423867911E+06,
2459993.500000000, A.D. 2023-Feb-18 00:00:00.0000, -1.506895144854079E+08, -3.382712085158330E+08, 3.860443520171821E+06,
2460000.500000000, A.D. 2023-Feb-25 00:00:00.0000, -1.408112200645088E+08, -3.425234850635728E+08, 2.851267630802140E+06,
2460007.500000000, A.D. 2023-Mar-04 00:00:00.0000, -1.307984088441860E+08, -3.464484502261962E+08, 1.839368528684810E+06,
2460014.500000000, A.D. 2023-Mar-11 00:00:00.0000, -1.206606208030532E+08, -3.500422807786779E+08, 8.257128417160809E+05,
2460021.500000000, A.D. 2023-Mar-18 00:00:00.0000, -1.104074833770473E+08, -3.533013631571527E+08, -1.887309654691815E+05,
2460028.500000000, A.D. 2023-Mar-25 00:00:00.0000, -1.000487114106192E+08, -3.562222943923761E+08, -1.202992644492477E+06,
2460035.500000000, A.D. 2023-Apr-01 00:00:00.0000, -8.959410655004722E+07, -3.588018831784130E+08, -2.216100259437159E+06,
2460042.500000000, A.D. 2023-Apr-08 00:00:00.0000, -7.905355667485286E+07, -3.610371498583941E+08, -3.227080171441093E+06,
2460049.500000000, A.D. 2023-Apr-15 00:00:00.0000, -6.843703768377219E+07, -3.629253264389866E+08, -4.234956789597720E+06,
2460056.500000000, A.D. 2023-Apr-22 00:00:00.0000, -5.775461580394900E+07, -3.644638596919209E+08, -5.238752505630344E+06,
2460063.500000000, A.D. 2023-Apr-29 00:00:00.0000, -4.701644766646244E+07, -3.656504150990934E+08, -6.237487881226093E+06,
2460070.500000000, A.D. 2023-May-06 00:00:00.0000, -3.623277988730360E+07, -3.664828798693825E+08, -7.230181783105567E+06,
2460077.500000000, A.D. 2023-May-13 00:00:00.0000, -2.541394910877900E+07, -3.669593659284441E+08, -8.215851451493114E+06,
2460084.500000000, A.D. 2023-May-20 00:00:00.0000, -1.457038224448238E+07, -3.670782133795516E+08, -9.193512566035271E+06,
2460091.500000000, A.D. 2023-May-27 00:00:00.0000, -3.712596710681969E+06, -3.668379944711193E+08, -1.016217933198029E+07,
2460098.500000000, A.D. 2023-Jun-03 00:00:00.0000, 7.148799438809362E+06, -3.662375180505586E+08, -1.112086459271419E+07,
2460105.500000000, A.D. 2023-Jun-10 00:00:00.0000, 1.800310752516710E+07, -3.652758345246649E+08, -1.206857997509629E+07,
2460112.500000000, A.D. 2023-Jun-17 00:00:00.0000, 2.883953852114266E+07, -3.639522413942850E+08, -1.300433608381048E+07,
2460119.500000000, A.D. 2023-Jun-24 00:00:00.0000, 3.964721393914425E+07, -3.622662893148125E+08, -1.392714277255774E+07,
2460126.500000000, A.D. 2023-Jul-01 00:00:00.0000, 5.041516761204034E+07, -3.602177878594977E+08, -1.483600945055285E+07,
2460133.500000000, A.D. 2023-Jul-08 00:00:00.0000, 6.113234672211672E+07, -3.578068101655580E+08, -1.572994520638318E+07,
2460140.500000000, A.D. 2023-Jul-15 00:00:00.0000, 7.178761083309838E+07, -3.550336992910319E+08, -1.660795886606771E+07,
$$EOE